{"personIdQ1":30786325579101,"firstName":"Ian","limit":20}|[{"friendId":10995116279328,"friendLastName":"Smith","distanceFromPerson":2,"friendBirthday":513388800000,"friendCreationDate":1291220622426,"friendGender":"male","friendBrowserUsed":"Internet Explorer","friendLocationIp":"199.103.115.201","friendEmails":["Ian10995116279328@gmx.com","Ian10995116279328@gmail.com"],"friendLanguages":["en"],"friendCityName":"Bristol","friendUniversities":[{"organizationName":"Faculty_of_Health","year":2005,"placeName":"Birmingham"}],"friendCompanies":[{"organizationName":"Flybe","year":2007,"placeName":"United_Kingdom"},{"organizationName":"Airtours_International_Airways","year":2006,"placeName":"United_Kingdom"},{"organizationName":"British_Mediterranean_Airways","year":2007,"placeName":"United_Kingdom"}]}]
{"personIdQ1":24189255811707,"firstName":"Jun","limit":20}|[{"friendId":8796093022435,"friendLastName":"Chen","distanceFromPerson":2,"friendBirthday":355449600000,"friendCreationDate":1286248446553,"friendGender":"female","friendBrowserUsed":"Chrome","friendLocationIp":"1.207.98.196","friendEmails":["Jun8796093022435@gmx.com"],"friendLanguages":["en","zh"],"friendCityName":"Chizhou","friendUniversities":[],"friendCompanies":[{"organizationName":"Chang'an_Airlines","year":2011,"placeName":"China"}]},{"friendId":26388279067358,"friendLastName":"Chen","distanceFromPerson":2,"friendBirthday":439084800000,"friendCreationDate":1327319316524,"friendGender":"female","friendBrowserUsed":"Firefox","friendLocationIp":"1.4.4.25","friendEmails":["Jun26388279067358@gmail.com"],"friendLanguages":["en","zh"],"friendCityName":"Lanzhou","friendUniversities":[],"friendCompanies":[{"organizationName":"Shenzhen_Donghai_Airlines","year":2004,"placeName":"China"}]},{"friendId":21990232557038,"friendLastName":"He","distanceFromPerson":2,"friendBirthday":322617600000,"friendCreationDate":1315626655636,"friendGender":"female","friendBrowserUsed":"Firefox","friendLocationIp":"1.28.102.211","friendEmails":["Jun21990232557038@yahoo.com","Jun21990232557038@gmx.com","Jun21990232557038@gmail.com"],"friendLanguages":["en","zh"],"friendCityName":"Hefei","friendUniversities":[{"organizationName":"Xi'an_Polytechnic_University","year":2000,"placeName":"Xi'an"}],"friendCompanies":[{"organizationName":"Shenzhen_Airlines","year":2000,"placeName":"China"},{"organizationName":"United_Eagle_Airlines","year":2000,"placeName":"China"},{"organizationName":"China_Southern_Airlines","year":2000,"placeName":"China"},{"organizationName":"Air_China_Cargo","year":2001,"placeName":"China"}]},{"friendId":17592186045019,"friendLastName":"Ito","distanceFromPerson":2,"friendBirthday":424828800000,"friendCreationDate":1309549672978,"friendGender":"female","friendBrowserUsed":"Chrome","friendLocationIp":"27.118.2.33","friendEmails":["Jun17592186045019@gmail.com"],"friendLanguages":["en","ja"],"friendCityName":"Osaka","friendUniversities":[{"organizationName":"Hachinohe_Junior_College","year":2005,"placeName":"Hachinohe"}],"friendCompanies":[]},{"friendId":32985348833702,"friendLastName":"Kato","distanceFromPerson":2,"friendBirthday":524361600000,"friendCreationDate":1342519797251,"friendGender":"female","friendBrowserUsed":"Internet Explorer","friendLocationIp":"27.111.77.194","friendEmails":["Jun32985348833702@zoho.com","Jun32985348833702@yahoo.com","Jun32985348833702@gmx.com","Jun32985348833702@gmail.com"],"friendLanguages":["en","ja"],"friendCityName":"Chiyoda","friendUniversities":[{"organizationName":"Sōka_University","year":2008,"placeName":"Hachiōji"}],"friendCompanies":[{"organizationName":"Air_Next","year":2009,"placeName":"Japan"},{"organizationName":"Air_Hokkaido","year":2008,"placeName":"Japan"}]},{"friendId":17592186044857,"friendLastName":"Li","distanceFromPerson":2,"friendBirthday":545875200000,"friendCreationDate":1308847044350,"friendGender":"female","friendBrowserUsed":"Firefox","friendLocationIp":"27.50.46.217","friendEmails":["Jun17592186044857@gmail.com"],"friendLanguages":["en","zh"],"friendCityName":"Dangyang","friendUniversities":[{"organizationName":"Hangzhou_International_School","year":2009,"placeName":"Hangzhou"}],"friendCompanies":[{"organizationName":"Shenzhen_Airlines","year":2009,"placeName":"China"}]},{"friendId":4398046511870,"friendLastName":"Wang","distanceFromPerson":2,"friendBirthday":561772800000,"friendCreationDate":1273381996555,"friendGender":"female","friendBrowserUsed":"Firefox","friendLocationIp":"1.204.167.114","friendEmails":["Jun4398046511870@gmail.com"],"friendLanguages":["en","zh"],"friendCityName":"Nanchong","friendUniversities":[{"organizationName":"College_of_Traditional_Chinese_Medicine_of_Xinjiang_Medical_University","year":2008,"placeName":"Ürümqi"}],"friendCompanies":[{"organizationName":"Spring_Airlines","year":2009,"placeName":"China"},{"organizationName":"Chongqing_Airlines","year":2009,"placeName":"China"},{"organizationName":"Sichuan_Airlines","year":2010,"placeName":"China"}]},{"friendId":26388279068220,"friendLastName":"Wang","distanceFromPerson":2,"friendBirthday":575424000000,"friendCreationDate":1331161432355,"friendGender":"female","friendBrowserUsed":"Opera","friendLocationIp":"1.12.242.179","friendEmails":["Jun26388279068220@gmx.com","Jun26388279068220@gmail.com"],"friendLanguages":["en","zh"],"friendCityName":"Shanxi","friendUniversities":[{"organizationName":"Hangzhou_Dianzi_University","year":2007,"placeName":"Hangzhou"}],"friendCompanies":[{"organizationName":"Shandong_Airlines","year":2008,"placeName":"China"},{"organizationName":"Okay_Airways","year":2007,"placeName":"China"},{"organizationName":"Air_China_Cargo","year":2008,"placeName":"China"}]},{"friendId":24189255812657,"friendLastName":"Yang","distanceFromPerson":2,"friendBirthday":427075200000,"friendCreationDate":1324523295963,"friendGender":"female","friendBrowserUsed":"Firefox","friendLocationIp":"1.203.198.207","friendEmails":["Jun24189255812657@yahoo.com","Jun24189255812657@gmx.com","Jun24189255812657@gmail.com"],"friendLanguages":["en","zh"],"friendCityName":"Anqing","friendUniversities":[{"organizationName":"Xi'an_Polytechnic_University","year":2004,"placeName":"Xi'an"}],"friendCompanies":[{"organizationName":"Wuhan_Airlines","year":2005,"placeName":"China"},{"organizationName":"Air_China","year":2005,"placeName":"China"},{"organizationName":"Spring_Airlines","year":2006,"placeName":"China"},{"organizationName":"Chang'an_Airlines","year":2006,"placeName":"China"},{"organizationName":"Guizhou_Airlines","year":2005,"placeName":"China"}]},{"friendId":13194139534915,"friendLastName":"Zhang","distanceFromPerson":2,"friendBirthday":583200000000,"friendCreationDate":1298480519319,"friendGender":"female","friendBrowserUsed":"Internet Explorer","friendLocationIp":"1.10.15.31","friendEmails":["Jun13194139534915@gmail.com"],"friendLanguages":["en","zh"],"friendCityName":"Chishui","friendUniversities":[{"organizationName":"Yangtze_Normal_University","year":2008,"placeName":"Chongqing"}],"friendCompanies":[{"organizationName":"China_Yunnan_Airlines","year":2010,"placeName":"China"},{"organizationName":"Shanghai_Airlines_Cargo","year":2008,"placeName":"China"},{"organizationName":"United_Eagle_Airlines","year":2009,"placeName":"China"},{"organizationName":"East_Star_Airlines","year":2008,"placeName":"China"},{"organizationName":"Tibet_Airlines","year":2009,"placeName":"China"}]},{"friendId":21990232556482,"friendLastName":"Zhu","distanceFromPerson":2,"friendBirthday":612489600000,"friendCreationDate":1315475423141,"friendGender":"female","friendBrowserUsed":"Internet Explorer","friendLocationIp":"1.1.22.34","friendEmails":["Jun21990232556482@zoho.com","Jun21990232556482@yahoo.com","Jun21990232556482@gmail.com"],"friendLanguages":["en","zh"],"friendCityName":"Feicheng","friendUniversities":[{"organizationName":"China_Europe_International_Business_School","year":2009,"placeName":"Shanghai"}],"friendCompanies":[{"organizationName":"Kunming_Airlines","year":2011,"placeName":"China"},{"organizationName":"China_Northern_Airlines","year":2009,"placeName":"China"}]},{"friendId":26388279068269,"friendLastName":"Zhu","distanceFromPerson":2,"friendBirthday":566265600000,"friendCreationDate":1328965090694,"friendGender":"female","friendBrowserUsed":"Firefox","friendLocationIp":"1.189.111.251","friendEmails":["Jun26388279068269@gmx.com","Jun26388279068269@gmail.com"],"friendLanguages":["en","zh"],"friendCityName":"Gongyi","friendUniversities":[{"organizationName":"Southwest_University","year":2008,"placeName":"Chongqing"}],"friendCompanies":[{"organizationName":"Tianjin_Airlines","year":2010,"placeName":"China"},{"organizationName":"Great_Wall_Airlines","year":2009,"placeName":"China"},{"organizationName":"West_Air_(People's_Republic_of_China)","year":2010,"placeName":"China"},{"organizationName":"Mahan_Air","year":2010,"placeName":"Iran"},{"organizationName":"Guizhou_Airlines","year":2010,"placeName":"China"}]},{"friendId":13194139533469,"friendLastName":"Chen","distanceFromPerson":3,"friendBirthday":420854400000,"friendCreationDate":1295900807705,"friendGender":"female","friendBrowserUsed":"Chrome","friendLocationIp":"1.2.7.208","friendEmails":["Jun13194139533469@zoho.com","Jun13194139533469@yahoo.com","Jun13194139533469@gmail.com"],"friendLanguages":["en","zh"],"friendCityName":"Dalian","friendUniversities":[{"organizationName":"Hangzhou_International_School","year":2004,"placeName":"Hangzhou"}],"friendCompanies":[{"organizationName":"Lao_Air","year":2006,"placeName":"Laos"},{"organizationName":"China_Northwest_Airlines","year":2005,"placeName":"China"},{"organizationName":"Chongqing_Airlines","year":2005,"placeName":"China"},{"organizationName":"Sichuan_Airlines","year":2004,"placeName":"China"}]},{"friendId":6597069767359,"friendLastName":"Li","distanceFromPerson":3,"friendBirthday":451440000000,"friendCreationDate":1279083169439,"friendGender":"female","friendBrowserUsed":"Safari","friendLocationIp":"27.29.124.155","friendEmails":["Jun6597069767359@hotmail.com","Jun6597069767359@gmx.com"],"friendLanguages":["en","zh"],"friendCityName":"Nanning","friendUniversities":[{"organizationName":"Shenyang_Aerospace_University","year":2003,"placeName":"Shenyang"}],"friendCompanies":[{"organizationName":"Tianjin_Airlines","year":2004,"placeName":"China"},{"organizationName":"Toumaï_Air_Tchad","year":2003,"placeName":"Chad"},{"organizationName":"China_Flying_Dragon_Aviation","year":2005,"placeName":"China"},{"organizationName":"Okay_Airways","year":2003,"placeName":"China"}]},{"friendId":24189255811079,"friendLastName":"Li","distanceFromPerson":3,"friendBirthday":560563200000,"friendCreationDate":1325145399032,"friendGender":"female","friendBrowserUsed":"Chrome","friendLocationIp":"1.29.220.142","friendEmails":["Jun24189255811079@yahoo.com","Jun24189255811079@gmail.com"],"friendLanguages":["en","zh"],"friendCityName":"Bei'an","friendUniversities":[{"organizationName":"Shenyang_Conservatory_of_Music","year":2006,"placeName":"Shenyang"}],"friendCompanies":[{"organizationName":"Tianjin_Airlines","year":2008,"placeName":"China"},{"organizationName":"United_Eagle_Airlines","year":2007,"placeName":"China"},{"organizationName":"China_Postal_Airlines","year":2008,"placeName":"China"},{"organizationName":"Air_China_Cargo","year":2007,"placeName":"China"}]},{"friendId":30786325578075,"friendLastName":"Li","distanceFromPerson":3,"friendBirthday":388454400000,"friendCreationDate":1340740844538,"friendGender":"female","friendBrowserUsed":"Chrome","friendLocationIp":"1.92.53.196","friendEmails":["Jun30786325578075@yahoo.com","Jun30786325578075@gmail.com"],"friendLanguages":["en","zh"],"friendCityName":"Dandong","friendUniversities":[{"organizationName":"China_Jiliang_University","year":2003,"placeName":"Hangzhou"}],"friendCompanies":[{"organizationName":"Chang'an_Airlines","year":2004,"placeName":"China"},{"organizationName":"Shandong_Airlines","year":2004,"placeName":"China"},{"organizationName":"United_Eagle_Airlines","year":2003,"placeName":"China"}]},{"friendId":19791209300572,"friendLastName":"Xu","distanceFromPerson":3,"friendBirthday":339897600000,"friendCreationDate":1311071220805,"friendGender":"female","friendBrowserUsed":"Chrome","friendLocationIp":"27.98.216.57","friendEmails":["Jun19791209300572@gmail.com"],"friendLanguages":["en","zh"],"friendCityName":"Cangzhou","friendUniversities":[{"organizationName":"Hangzhou_International_School","year":2002,"placeName":"Hangzhou"}],"friendCompanies":[{"organizationName":"Great_Wall_Airlines","year":2004,"placeName":"China"},{"organizationName":"Shanghai_Airlines_Cargo","year":2003,"placeName":"China"},{"organizationName":"Chang'an_Airlines","year":2003,"placeName":"China"}]},{"friendId":10995116279040,"friendLastName":"Yamada","distanceFromPerson":3,"friendBirthday":426038400000,"friendCreationDate":1292012983883,"friendGender":"female","friendBrowserUsed":"Firefox","friendLocationIp":"27.110.117.214","friendEmails":["Jun10995116279040@gmx.com","Jun10995116279040@gmail.com"],"friendLanguages":["en","ja"],"friendCityName":"Yokohama","friendUniversities":[],"friendCompanies":[]},{"friendId":30786325578060,"friendLastName":"Yang","distanceFromPerson":3,"friendBirthday":538531200000,"friendCreationDate":1338357297910,"friendGender":"female","friendBrowserUsed":"Chrome","friendLocationIp":"1.2.0.161","friendEmails":["Jun30786325578060@gmail.com"],"friendLanguages":["en","zh"],"friendCityName":"Cenxi","friendUniversities":[{"organizationName":"Xi'an_Polytechnic_University","year":2005,"placeName":"Xi'an"}],"friendCompanies":[{"organizationName":"Air_China_Cargo","year":2007,"placeName":"China"}]},{"friendId":19791209300990,"friendLastName":"Zhang","distanceFromPerson":3,"friendBirthday":471398400000,"friendCreationDate":1312756650150,"friendGender":"female","friendBrowserUsed":"Chrome","friendLocationIp":"1.10.21.91","friendEmails":["Jun19791209300990@gmx.com","Jun19791209300990@gmail.com"],"friendLanguages":["en","zh"],"friendCityName":"Dali","friendUniversities":[{"organizationName":"Anhui_University_of_Science_and_Technology","year":2004,"placeName":"Huainan"}],"friendCompanies":[]}]
{"personIdQ1":26388279067358,"firstName":"Jun","limit":20}|[{"friendId":24189255812657,"friendLastName":"Yang","distanceFromPerson":1,"friendBirthday":427075200000,"friendCreationDate":1324523295963,"friendGender":"female","friendBrowserUsed":"Firefox","friendLocationIp":"1.203.198.207","friendEmails":["Jun24189255812657@yahoo.com","Jun24189255812657@gmx.com","Jun24189255812657@gmail.com"],"friendLanguages":["en","zh"],"friendCityName":"Anqing","friendUniversities":[{"organizationName":"Xi'an_Polytechnic_University","year":2004,"placeName":"Xi'an"}],"friendCompanies":[{"organizationName":"Wuhan_Airlines","year":2005,"placeName":"China"},{"organizationName":"Air_China","year":2005,"placeName":"China"},{"organizationName":"Chang'an_Airlines","year":2006,"placeName":"China"},{"organizationName":"Spring_Airlines","year":2006,"placeName":"China"},{"organizationName":"Guizhou_Airlines","year":2005,"placeName":"China"}]},{"friendId":21990232557038,"friendLastName":"He","distanceFromPerson":2,"friendBirthday":322617600000,"friendCreationDate":1315626655636,"friendGender":"female","friendBrowserUsed":"Firefox","friendLocationIp":"1.28.102.211","friendEmails":["Jun21990232557038@yahoo.com","Jun21990232557038@gmx.com","Jun21990232557038@gmail.com"],"friendLanguages":["en","zh"],"friendCityName":"Hefei","friendUniversities":[{"organizationName":"Xi'an_Polytechnic_University","year":2000,"placeName":"Xi'an"}],"friendCompanies":[{"organizationName":"Shenzhen_Airlines","year":2000,"placeName":"China"},{"organizationName":"United_Eagle_Airlines","year":2000,"placeName":"China"},{"organizationName":"China_Southern_Airlines","year":2000,"placeName":"China"},{"organizationName":"Air_China_Cargo","year":2001,"placeName":"China"}]},{"friendId":17592186045019,"friendLastName":"Ito","distanceFromPerson":2,"friendBirthday":424828800000,"friendCreationDate":1309549672978,"friendGender":"female","friendBrowserUsed":"Chrome","friendLocationIp":"27.118.2.33","friendEmails":["Jun17592186045019@gmail.com"],"friendLanguages":["en","ja"],"friendCityName":"Osaka","friendUniversities":[{"organizationName":"Hachinohe_Junior_College","year":2005,"placeName":"Hachinohe"}],"friendCompanies":[]},{"friendId":32985348833702,"friendLastName":"Kato","distanceFromPerson":2,"friendBirthday":524361600000,"friendCreationDate":1342519797251,"friendGender":"female","friendBrowserUsed":"Internet Explorer","friendLocationIp":"27.111.77.194","friendEmails":["Jun32985348833702@zoho.com","Jun32985348833702@yahoo.com","Jun32985348833702@gmx.com","Jun32985348833702@gmail.com"],"friendLanguages":["en","ja"],"friendCityName":"Chiyoda","friendUniversities":[{"organizationName":"Sōka_University","year":2008,"placeName":"Hachiōji"}],"friendCompanies":[{"organizationName":"Air_Next","year":2009,"placeName":"Japan"},{"organizationName":"Air_Hokkaido","year":2008,"placeName":"Japan"}]},{"friendId":17592186044857,"friendLastName":"Li","distanceFromPerson":2,"friendBirthday":545875200000,"friendCreationDate":1308847044350,"friendGender":"female","friendBrowserUsed":"Firefox","friendLocationIp":"27.50.46.217","friendEmails":["Jun17592186044857@gmail.com"],"friendLanguages":["en","zh"],"friendCityName":"Dangyang","friendUniversities":[{"organizationName":"Hangzhou_International_School","year":2009,"placeName":"Hangzhou"}],"friendCompanies":[{"organizationName":"Shenzhen_Airlines","year":2009,"placeName":"China"}]},{"friendId":24189255811079,"friendLastName":"Li","distanceFromPerson":2,"friendBirthday":560563200000,"friendCreationDate":1325145399032,"friendGender":"female","friendBrowserUsed":"Chrome","friendLocationIp":"1.29.220.142","friendEmails":["Jun24189255811079@yahoo.com","Jun24189255811079@gmail.com"],"friendLanguages":["en","zh"],"friendCityName":"Bei'an","friendUniversities":[{"organizationName":"Shenyang_Conservatory_of_Music","year":2006,"placeName":"Shenyang"}],"friendCompanies":[{"organizationName":"Tianjin_Airlines","year":2008,"placeName":"China"},{"organizationName":"China_Postal_Airlines","year":2008,"placeName":"China"},{"organizationName":"United_Eagle_Airlines","year":2007,"placeName":"China"},{"organizationName":"Air_China_Cargo","year":2007,"placeName":"China"}]},{"friendId":4398046511870,"friendLastName":"Wang","distanceFromPerson":2,"friendBirthday":561772800000,"friendCreationDate":1273381996555,"friendGender":"female","friendBrowserUsed":"Firefox","friendLocationIp":"1.204.167.114","friendEmails":["Jun4398046511870@gmail.com"],"friendLanguages":["en","zh"],"friendCityName":"Nanchong","friendUniversities":[{"organizationName":"College_of_Traditional_Chinese_Medicine_of_Xinjiang_Medical_University","year":2008,"placeName":"Ürümqi"}],"friendCompanies":[{"organizationName":"Spring_Airlines","year":2009,"placeName":"China"},{"organizationName":"Sichuan_Airlines","year":2010,"placeName":"China"},{"organizationName":"Chongqing_Airlines","year":2009,"placeName":"China"}]},{"friendId":10995116279040,"friendLastName":"Yamada","distanceFromPerson":2,"friendBirthday":426038400000,"friendCreationDate":1292012983883,"friendGender":"female","friendBrowserUsed":"Firefox","friendLocationIp":"27.110.117.214","friendEmails":["Jun10995116279040@gmx.com","Jun10995116279040@gmail.com"],"friendLanguages":["en","ja"],"friendCityName":"Yokohama","friendUniversities":[],"friendCompanies":[]},{"friendId":21990232556482,"friendLastName":"Zhu","distanceFromPerson":2,"friendBirthday":612489600000,"friendCreationDate":1315475423141,"friendGender":"female","friendBrowserUsed":"Internet Explorer","friendLocationIp":"1.1.22.34","friendEmails":["Jun21990232556482@zoho.com","Jun21990232556482@yahoo.com","Jun21990232556482@gmail.com"],"friendLanguages":["en","zh"],"friendCityName":"Feicheng","friendUniversities":[{"organizationName":"China_Europe_International_Business_School","year":2009,"placeName":"Shanghai"}],"friendCompanies":[{"organizationName":"Kunming_Airlines","year":2011,"placeName":"China"},{"organizationName":"China_Northern_Airlines","year":2009,"placeName":"China"}]},{"friendId":26388279068269,"friendLastName":"Zhu","distanceFromPerson":2,"friendBirthday":566265600000,"friendCreationDate":1328965090694,"friendGender":"female","friendBrowserUsed":"Firefox","friendLocationIp":"1.189.111.251","friendEmails":["Jun26388279068269@gmx.com","Jun26388279068269@gmail.com"],"friendLanguages":["en","zh"],"friendCityName":"Gongyi","friendUniversities":[{"organizationName":"Southwest_University","year":2008,"placeName":"Chongqing"}],"friendCompanies":[{"organizationName":"Tianjin_Airlines","year":2010,"placeName":"China"},{"organizationName":"Great_Wall_Airlines","year":2009,"placeName":"China"},{"organizationName":"West_Air_(People's_Republic_of_China)","year":2010,"placeName":"China"},{"organizationName":"Mahan_Air","year":2010,"placeName":"Iran"},{"organizationName":"Guizhou_Airlines","year":2010,"placeName":"China"}]},{"friendId":8796093022435,"friendLastName":"Chen","distanceFromPerson":3,"friendBirthday":355449600000,"friendCreationDate":1286248446553,"friendGender":"female","friendBrowserUsed":"Chrome","friendLocationIp":"1.207.98.196","friendEmails":["Jun8796093022435@gmx.com"],"friendLanguages":["en","zh"],"friendCityName":"Chizhou","friendUniversities":[],"friendCompanies":[{"organizationName":"Chang'an_Airlines","year":2011,"placeName":"China"}]},{"friendId":13194139533469,"friendLastName":"Chen","distanceFromPerson":3,"friendBirthday":420854400000,"friendCreationDate":1295900807705,"friendGender":"female","friendBrowserUsed":"Chrome","friendLocationIp":"1.2.7.208","friendEmails":["Jun13194139533469@zoho.com","Jun13194139533469@yahoo.com","Jun13194139533469@gmail.com"],"friendLanguages":["en","zh"],"friendCityName":"Dalian","friendUniversities":[{"organizationName":"Hangzhou_International_School","year":2004,"placeName":"Hangzhou"}],"friendCompanies":[{"organizationName":"Lao_Air","year":2006,"placeName":"Laos"},{"organizationName":"China_Northwest_Airlines","year":2005,"placeName":"China"},{"organizationName":"Sichuan_Airlines","year":2004,"placeName":"China"},{"organizationName":"Chongqing_Airlines","year":2005,"placeName":"China"}]},{"friendId":6597069767359,"friendLastName":"Li","distanceFromPerson":3,"friendBirthday":451440000000,"friendCreationDate":1279083169439,"friendGender":"female","friendBrowserUsed":"Safari","friendLocationIp":"27.29.124.155","friendEmails":["Jun6597069767359@hotmail.com","Jun6597069767359@gmx.com"],"friendLanguages":["en","zh"],"friendCityName":"Nanning","friendUniversities":[{"organizationName":"Shenyang_Aerospace_University","year":2003,"placeName":"Shenyang"}],"friendCompanies":[{"organizationName":"Tianjin_Airlines","year":2004,"placeName":"China"},{"organizationName":"Toumaï_Air_Tchad","year":2003,"placeName":"Chad"},{"organizationName":"China_Flying_Dragon_Aviation","year":2005,"placeName":"China"},{"organizationName":"Okay_Airways","year":2003,"placeName":"China"}]},{"friendId":30786325578075,"friendLastName":"Li","distanceFromPerson":3,"friendBirthday":388454400000,"friendCreationDate":1340740844538,"friendGender":"female","friendBrowserUsed":"Chrome","friendLocationIp":"1.92.53.196","friendEmails":["Jun30786325578075@yahoo.com","Jun30786325578075@gmail.com"],"friendLanguages":["en","zh"],"friendCityName":"Dandong","friendUniversities":[{"organizationName":"China_Jiliang_University","year":2003,"placeName":"Hangzhou"}],"friendCompanies":[{"organizationName":"Shandong_Airlines","year":2004,"placeName":"China"},{"organizationName":"Chang'an_Airlines","year":2004,"placeName":"China"},{"organizationName":"United_Eagle_Airlines","year":2003,"placeName":"China"}]},{"friendId":26388279068220,"friendLastName":"Wang","distanceFromPerson":3,"friendBirthday":575424000000,"friendCreationDate":1331161432355,"friendGender":"female","friendBrowserUsed":"Opera","friendLocationIp":"1.12.242.179","friendEmails":["Jun26388279068220@gmx.com","Jun26388279068220@gmail.com"],"friendLanguages":["en","zh"],"friendCityName":"Shanxi","friendUniversities":[{"organizationName":"Hangzhou_Dianzi_University","year":2007,"placeName":"Hangzhou"}],"friendCompanies":[{"organizationName":"Shandong_Airlines","year":2008,"placeName":"China"},{"organizationName":"Okay_Airways","year":2007,"placeName":"China"},{"organizationName":"Air_China_Cargo","year":2008,"placeName":"China"}]},{"friendId":19791209300572,"friendLastName":"Xu","distanceFromPerson":3,"friendBirthday":339897600000,"friendCreationDate":1311071220805,"friendGender":"female","friendBrowserUsed":"Chrome","friendLocationIp":"27.98.216.57","friendEmails":["Jun19791209300572@gmail.com"],"friendLanguages":["en","zh"],"friendCityName":"Cangzhou","friendUniversities":[{"organizationName":"Hangzhou_International_School","year":2002,"placeName":"Hangzhou"}],"friendCompanies":[{"organizationName":"Shanghai_Airlines_Cargo","year":2003,"placeName":"China"},{"organizationName":"Great_Wall_Airlines","year":2004,"placeName":"China"},{"organizationName":"Chang'an_Airlines","year":2003,"placeName":"China"}]},{"friendId":30786325578060,"friendLastName":"Yang","distanceFromPerson":3,"friendBirthday":538531200000,"friendCreationDate":1338357297910,"friendGender":"female","friendBrowserUsed":"Chrome","friendLocationIp":"1.2.0.161","friendEmails":["Jun30786325578060@gmail.com"],"friendLanguages":["en","zh"],"friendCityName":"Cenxi","friendUniversities":[{"organizationName":"Xi'an_Polytechnic_University","year":2005,"placeName":"Xi'an"}],"friendCompanies":[{"organizationName":"Air_China_Cargo","year":2007,"placeName":"China"}]},{"friendId":13194139534915,"friendLastName":"Zhang","distanceFromPerson":3,"friendBirthday":583200000000,"friendCreationDate":1298480519319,"friendGender":"female","friendBrowserUsed":"Internet Explorer","friendLocationIp":"1.10.15.31","friendEmails":["Jun13194139534915@gmail.com"],"friendLanguages":["en","zh"],"friendCityName":"Chishui","friendUniversities":[{"organizationName":"Yangtze_Normal_University","year":2008,"placeName":"Chongqing"}],"friendCompanies":[{"organizationName":"China_Yunnan_Airlines","year":2010,"placeName":"China"},{"organizationName":"Shanghai_Airlines_Cargo","year":2008,"placeName":"China"},{"organizationName":"United_Eagle_Airlines","year":2009,"placeName":"China"},{"organizationName":"East_Star_Airlines","year":2008,"placeName":"China"},{"organizationName":"Tibet_Airlines","year":2009,"placeName":"China"}]},{"friendId":19791209300990,"friendLastName":"Zhang","distanceFromPerson":3,"friendBirthday":471398400000,"friendCreationDate":1312756650150,"friendGender":"female","friendBrowserUsed":"Chrome","friendLocationIp":"1.10.21.91","friendEmails":["Jun19791209300990@gmx.com","Jun19791209300990@gmail.com"],"friendLanguages":["en","zh"],"friendCityName":"Dali","friendUniversities":[{"organizationName":"Anhui_University_of_Science_and_Technology","year":2004,"placeName":"Huainan"}],"friendCompanies":[]}]
{"personIdQ1":17592186044737,"firstName":"Jun","limit":20}|[{"friendId":8796093022435,"friendLastName":"Chen","distanceFromPerson":2,"friendBirthday":355449600000,"friendCreationDate":1286248446553,"friendGender":"female","friendBrowserUsed":"Chrome","friendLocationIp":"1.207.98.196","friendEmails":["Jun8796093022435@gmx.com"],"friendLanguages":["en","zh"],"friendCityName":"Chizhou","friendUniversities":[],"friendCompanies":[{"organizationName":"Chang'an_Airlines","year":2011,"placeName":"China"}]},{"friendId":21990232557038,"friendLastName":"He","distanceFromPerson":2,"friendBirthday":322617600000,"friendCreationDate":1315626655636,"friendGender":"female","friendBrowserUsed":"Firefox","friendLocationIp":"1.28.102.211","friendEmails":["Jun21990232557038@yahoo.com","Jun21990232557038@gmx.com","Jun21990232557038@gmail.com"],"friendLanguages":["en","zh"],"friendCityName":"Hefei","friendUniversities":[{"organizationName":"Xi'an_Polytechnic_University","year":2000,"placeName":"Xi'an"}],"friendCompanies":[{"organizationName":"Shenzhen_Airlines","year":2000,"placeName":"China"},{"organizationName":"United_Eagle_Airlines","year":2000,"placeName":"China"},{"organizationName":"China_Southern_Airlines","year":2000,"placeName":"China"},{"organizationName":"Air_China_Cargo","year":2001,"placeName":"China"}]},{"friendId":32985348833702,"friendLastName":"Kato","distanceFromPerson":2,"friendBirthday":524361600000,"friendCreationDate":1342519797251,"friendGender":"female","friendBrowserUsed":"Internet Explorer","friendLocationIp":"27.111.77.194","friendEmails":["Jun32985348833702@zoho.com","Jun32985348833702@yahoo.com","Jun32985348833702@gmx.com","Jun32985348833702@gmail.com"],"friendLanguages":["en","ja"],"friendCityName":"Chiyoda","friendUniversities":[{"organizationName":"Sōka_University","year":2008,"placeName":"Hachiōji"}],"friendCompanies":[{"organizationName":"Air_Next","year":2009,"placeName":"Japan"},{"organizationName":"Air_Hokkaido","year":2008,"placeName":"Japan"}]},{"friendId":17592186044857,"friendLastName":"Li","distanceFromPerson":2,"friendBirthday":545875200000,"friendCreationDate":1308847044350,"friendGender":"female","friendBrowserUsed":"Firefox","friendLocationIp":"27.50.46.217","friendEmails":["Jun17592186044857@gmail.com"],"friendLanguages":["en","zh"],"friendCityName":"Dangyang","friendUniversities":[{"organizationName":"Hangzhou_International_School","year":2009,"placeName":"Hangzhou"}],"friendCompanies":[{"organizationName":"Shenzhen_Airlines","year":2009,"placeName":"China"}]},{"friendId":26388279068220,"friendLastName":"Wang","distanceFromPerson":2,"friendBirthday":575424000000,"friendCreationDate":1331161432355,"friendGender":"female","friendBrowserUsed":"Opera","friendLocationIp":"1.12.242.179","friendEmails":["Jun26388279068220@gmx.com","Jun26388279068220@gmail.com"],"friendLanguages":["en","zh"],"friendCityName":"Shanxi","friendUniversities":[{"organizationName":"Hangzhou_Dianzi_University","year":2007,"placeName":"Hangzhou"}],"friendCompanies":[{"organizationName":"Okay_Airways","year":2007,"placeName":"China"},{"organizationName":"Shandong_Airlines","year":2008,"placeName":"China"},{"organizationName":"Air_China_Cargo","year":2008,"placeName":"China"}]},{"friendId":19791209300572,"friendLastName":"Xu","distanceFromPerson":2,"friendBirthday":339897600000,"friendCreationDate":1311071220805,"friendGender":"female","friendBrowserUsed":"Chrome","friendLocationIp":"27.98.216.57","friendEmails":["Jun19791209300572@gmail.com"],"friendLanguages":["en","zh"],"friendCityName":"Cangzhou","friendUniversities":[{"organizationName":"Hangzhou_International_School","year":2002,"placeName":"Hangzhou"}],"friendCompanies":[{"organizationName":"Shanghai_Airlines_Cargo","year":2003,"placeName":"China"},{"organizationName":"Great_Wall_Airlines","year":2004,"placeName":"China"},{"organizationName":"Chang'an_Airlines","year":2003,"placeName":"China"}]},{"friendId":30786325578060,"friendLastName":"Yang","distanceFromPerson":2,"friendBirthday":538531200000,"friendCreationDate":1338357297910,"friendGender":"female","friendBrowserUsed":"Chrome","friendLocationIp":"1.2.0.161","friendEmails":["Jun30786325578060@gmail.com"],"friendLanguages":["en","zh"],"friendCityName":"Cenxi","friendUniversities":[{"organizationName":"Xi'an_Polytechnic_University","year":2005,"placeName":"Xi'an"}],"friendCompanies":[{"organizationName":"Air_China_Cargo","year":2007,"placeName":"China"}]},{"friendId":13194139534915,"friendLastName":"Zhang","distanceFromPerson":2,"friendBirthday":583200000000,"friendCreationDate":1298480519319,"friendGender":"female","friendBrowserUsed":"Internet Explorer","friendLocationIp":"1.10.15.31","friendEmails":["Jun13194139534915@gmail.com"],"friendLanguages":["en","zh"],"friendCityName":"Chishui","friendUniversities":[{"organizationName":"Yangtze_Normal_University","year":2008,"placeName":"Chongqing"}],"friendCompanies":[{"organizationName":"China_Yunnan_Airlines","year":2010,"placeName":"China"},{"organizationName":"Shanghai_Airlines_Cargo","year":2008,"placeName":"China"},{"organizationName":"United_Eagle_Airlines","year":2009,"placeName":"China"},{"organizationName":"East_Star_Airlines","year":2008,"placeName":"China"},{"organizationName":"Tibet_Airlines","year":2009,"placeName":"China"}]},{"friendId":26388279068269,"friendLastName":"Zhu","distanceFromPerson":2,"friendBirthday":566265600000,"friendCreationDate":1328965090694,"friendGender":"female","friendBrowserUsed":"Firefox","friendLocationIp":"1.189.111.251","friendEmails":["Jun26388279068269@gmx.com","Jun26388279068269@gmail.com"],"friendLanguages":["en","zh"],"friendCityName":"Gongyi","friendUniversities":[{"organizationName":"Southwest_University","year":2008,"placeName":"Chongqing"}],"friendCompanies":[{"organizationName":"Tianjin_Airlines","year":2010,"placeName":"China"},{"organizationName":"Great_Wall_Airlines","year":2009,"placeName":"China"},{"organizationName":"West_Air_(People's_Republic_of_China)","year":2010,"placeName":"China"},{"organizationName":"Mahan_Air","year":2010,"placeName":"Iran"},{"organizationName":"Guizhou_Airlines","year":2010,"placeName":"China"}]},{"friendId":13194139533469,"friendLastName":"Chen","distanceFromPerson":3,"friendBirthday":420854400000,"friendCreationDate":1295900807705,"friendGender":"female","friendBrowserUsed":"Chrome","friendLocationIp":"1.2.7.208","friendEmails":["Jun13194139533469@zoho.com","Jun13194139533469@yahoo.com","Jun13194139533469@gmail.com"],"friendLanguages":["en","zh"],"friendCityName":"Dalian","friendUniversities":[{"organizationName":"Hangzhou_International_School","year":2004,"placeName":"Hangzhou"}],"friendCompanies":[{"organizationName":"Lao_Air","year":2006,"placeName":"Laos"},{"organizationName":"China_Northwest_Airlines","year":2005,"placeName":"China"},{"organizationName":"Chongqing_Airlines","year":2005,"placeName":"China"},{"organizationName":"Sichuan_Airlines","year":2004,"placeName":"China"}]},{"friendId":26388279067358,"friendLastName":"Chen","distanceFromPerson":3,"friendBirthday":439084800000,"friendCreationDate":1327319316524,"friendGender":"female","friendBrowserUsed":"Firefox","friendLocationIp":"1.4.4.25","friendEmails":["Jun26388279067358@gmail.com"],"friendLanguages":["en","zh"],"friendCityName":"Lanzhou","friendUniversities":[],"friendCompanies":[{"organizationName":"Shenzhen_Donghai_Airlines","year":2004,"placeName":"China"}]},{"friendId":17592186045019,"friendLastName":"Ito","distanceFromPerson":3,"friendBirthday":424828800000,"friendCreationDate":1309549672978,"friendGender":"female","friendBrowserUsed":"Chrome","friendLocationIp":"27.118.2.33","friendEmails":["Jun17592186045019@gmail.com"],"friendLanguages":["en","ja"],"friendCityName":"Osaka","friendUniversities":[{"organizationName":"Hachinohe_Junior_College","year":2005,"placeName":"Hachinohe"}],"friendCompanies":[]},{"friendId":6597069767359,"friendLastName":"Li","distanceFromPerson":3,"friendBirthday":451440000000,"friendCreationDate":1279083169439,"friendGender":"female","friendBrowserUsed":"Safari","friendLocationIp":"27.29.124.155","friendEmails":["Jun6597069767359@hotmail.com","Jun6597069767359@gmx.com"],"friendLanguages":["en","zh"],"friendCityName":"Nanning","friendUniversities":[{"organizationName":"Shenyang_Aerospace_University","year":2003,"placeName":"Shenyang"}],"friendCompanies":[{"organizationName":"Tianjin_Airlines","year":2004,"placeName":"China"},{"organizationName":"Toumaï_Air_Tchad","year":2003,"placeName":"Chad"},{"organizationName":"China_Flying_Dragon_Aviation","year":2005,"placeName":"China"},{"organizationName":"Okay_Airways","year":2003,"placeName":"China"}]},{"friendId":24189255811079,"friendLastName":"Li","distanceFromPerson":3,"friendBirthday":560563200000,"friendCreationDate":1325145399032,"friendGender":"female","friendBrowserUsed":"Chrome","friendLocationIp":"1.29.220.142","friendEmails":["Jun24189255811079@yahoo.com","Jun24189255811079@gmail.com"],"friendLanguages":["en","zh"],"friendCityName":"Bei'an","friendUniversities":[{"organizationName":"Shenyang_Conservatory_of_Music","year":2006,"placeName":"Shenyang"}],"friendCompanies":[{"organizationName":"Tianjin_Airlines","year":2008,"placeName":"China"},{"organizationName":"United_Eagle_Airlines","year":2007,"placeName":"China"},{"organizationName":"China_Postal_Airlines","year":2008,"placeName":"China"},{"organizationName":"Air_China_Cargo","year":2007,"placeName":"China"}]},{"friendId":30786325578075,"friendLastName":"Li","distanceFromPerson":3,"friendBirthday":388454400000,"friendCreationDate":1340740844538,"friendGender":"female","friendBrowserUsed":"Chrome","friendLocationIp":"1.92.53.196","friendEmails":["Jun30786325578075@yahoo.com","Jun30786325578075@gmail.com"],"friendLanguages":["en","zh"],"friendCityName":"Dandong","friendUniversities":[{"organizationName":"China_Jiliang_University","year":2003,"placeName":"Hangzhou"}],"friendCompanies":[{"organizationName":"United_Eagle_Airlines","year":2003,"placeName":"China"},{"organizationName":"Shandong_Airlines","year":2004,"placeName":"China"},{"organizationName":"Chang'an_Airlines","year":2004,"placeName":"China"}]},{"friendId":4398046511870,"friendLastName":"Wang","distanceFromPerson":3,"friendBirthday":561772800000,"friendCreationDate":1273381996555,"friendGender":"female","friendBrowserUsed":"Firefox","friendLocationIp":"1.204.167.114","friendEmails":["Jun4398046511870@gmail.com"],"friendLanguages":["en","zh"],"friendCityName":"Nanchong","friendUniversities":[{"organizationName":"College_of_Traditional_Chinese_Medicine_of_Xinjiang_Medical_University","year":2008,"placeName":"Ürümqi"}],"friendCompanies":[{"organizationName":"Spring_Airlines","year":2009,"placeName":"China"},{"organizationName":"Chongqing_Airlines","year":2009,"placeName":"China"},{"organizationName":"Sichuan_Airlines","year":2010,"placeName":"China"}]},{"friendId":10995116279040,"friendLastName":"Yamada","distanceFromPerson":3,"friendBirthday":426038400000,"friendCreationDate":1292012983883,"friendGender":"female","friendBrowserUsed":"Firefox","friendLocationIp":"27.110.117.214","friendEmails":["Jun10995116279040@gmx.com","Jun10995116279040@gmail.com"],"friendLanguages":["en","ja"],"friendCityName":"Yokohama","friendUniversities":[],"friendCompanies":[]},{"friendId":24189255812657,"friendLastName":"Yang","distanceFromPerson":3,"friendBirthday":427075200000,"friendCreationDate":1324523295963,"friendGender":"female","friendBrowserUsed":"Firefox","friendLocationIp":"1.203.198.207","friendEmails":["Jun24189255812657@yahoo.com","Jun24189255812657@gmx.com","Jun24189255812657@gmail.com"],"friendLanguages":["en","zh"],"friendCityName":"Anqing","friendUniversities":[{"organizationName":"Xi'an_Polytechnic_University","year":2004,"placeName":"Xi'an"}],"friendCompanies":[{"organizationName":"Wuhan_Airlines","year":2005,"placeName":"China"},{"organizationName":"Spring_Airlines","year":2006,"placeName":"China"},{"organizationName":"Air_China","year":2005,"placeName":"China"},{"organizationName":"Chang'an_Airlines","year":2006,"placeName":"China"},{"organizationName":"Guizhou_Airlines","year":2005,"placeName":"China"}]},{"friendId":19791209300990,"friendLastName":"Zhang","distanceFromPerson":3,"friendBirthday":471398400000,"friendCreationDate":1312756650150,"friendGender":"female","friendBrowserUsed":"Chrome","friendLocationIp":"1.10.21.91","friendEmails":["Jun19791209300990@gmx.com","Jun19791209300990@gmail.com"],"friendLanguages":["en","zh"],"friendCityName":"Dali","friendUniversities":[{"organizationName":"Anhui_University_of_Science_and_Technology","year":2004,"placeName":"Huainan"}],"friendCompanies":[]},{"friendId":21990232556482,"friendLastName":"Zhu","distanceFromPerson":3,"friendBirthday":612489600000,"friendCreationDate":1315475423141,"friendGender":"female","friendBrowserUsed":"Internet Explorer","friendLocationIp":"1.1.22.34","friendEmails":["Jun21990232556482@zoho.com","Jun21990232556482@yahoo.com","Jun21990232556482@gmail.com"],"friendLanguages":["en","zh"],"friendCityName":"Feicheng","friendUniversities":[{"organizationName":"China_Europe_International_Business_School","year":2009,"placeName":"Shanghai"}],"friendCompanies":[{"organizationName":"Kunming_Airlines","year":2011,"placeName":"China"},{"organizationName":"China_Northern_Airlines","year":2009,"placeName":"China"}]}]
{"personIdQ1":32985348834036,"firstName":"Adriaen","limit":20}|[{"friendId":13194139533432,"friendLastName":"Jong","distanceFromPerson":1,"friendBirthday":511315200000,"friendCreationDate":1296741574277,"friendGender":"female","friendBrowserUsed":"Opera","friendLocationIp":"192.101.114.88","friendEmails":["Adriaen13194139533432@yahoo.com","Adriaen13194139533432@gmail.com"],"friendLanguages":["en","nl"],"friendCityName":"The_Hague","friendUniversities":[{"organizationName":"Utrecht_University_School_of_Economics","year":2004,"placeName":"Utrecht"}],"friendCompanies":[]},{"friendId":2199023255871,"friendLastName":"Dam","distanceFromPerson":3,"friendBirthday":499219200000,"friendCreationDate":1269690028471,"friendGender":"female","friendBrowserUsed":"Chrome","friendLocationIp":"46.129.206.216","friendEmails":["Adriaen2199023255871@yahoo.com","Adriaen2199023255871@gmail.com"],"friendLanguages":["en","nl"],"friendCityName":"The_Hague","friendUniversities":[{"organizationName":"Hotelschool_The_Hague","year":2005,"placeName":"The_Hague"}],"friendCompanies":[]}]
{"personIdQ1":32985348834013,"firstName":"Claribel","limit":20}|[]
{"personIdQ1":2199023256919,"firstName":"Ahmad Rafiq","limit":20}|[{"friendId":24189255812419,"friendLastName":"Irama","distanceFromPerson":2,"friendBirthday":600393600000,"friendCreationDate":1324630205545,"friendGender":"male","friendBrowserUsed":"Chrome","friendLocationIp":"103.22.165.62","friendEmails":["Ahmad.Rafiq24189255812419@yahoo.com","Ahmad.Rafiq24189255812419@gmail.com"],"friendLanguages":["en","nl","jv"],"friendCityName":"Banda_Aceh","friendUniversities":[{"organizationName":"Trunojoyo_University","year":2010,"placeName":"Bangkalan"}],"friendCompanies":[{"organizationName":"Pelita_Air_Service","year":2011,"placeName":"Indonesia"}]}]
{"personIdQ1":19791209300317,"firstName":"Geremi Sorele Njitap","limit":20}|[{"friendId":10995116278142,"friendLastName":"Anderson","distanceFromPerson":2,"friendBirthday":423705600000,"friendCreationDate":1290895071212,"friendGender":"male","friendBrowserUsed":"Firefox","friendLocationIp":"41.205.68.74","friendEmails":["Geremi.Sorele.Njitap10995116278142@yahoo.com","Geremi.Sorele.Njitap10995116278142@gmx.com","Geremi.Sorele.Njitap10995116278142@gmail.com"],"friendLanguages":["en","fr"],"friendCityName":"Garoua","friendUniversities":[],"friendCompanies":[{"organizationName":"National_Airways_Cameroon","year":2002,"placeName":"Cameroon"}]},{"friendId":10995116279125,"friendLastName":"Ako","distanceFromPerson":3,"friendBirthday":568166400000,"friendCreationDate":1292333263747,"friendGender":"male","friendBrowserUsed":"Chrome","friendLocationIp":"41.190.225.153","friendEmails":["Geremi.Sorele.Njitap10995116279125@yahoo.com","Geremi.Sorele.Njitap10995116279125@gmail.com"],"friendLanguages":["en","fr"],"friendCityName":"Baffoussam","friendUniversities":[{"organizationName":"University_of_Buea","year":2009,"placeName":"Buea"}],"friendCompanies":[{"organizationName":"Section_Liaison_Air_Yaoundé","year":2010,"placeName":"Cameroon"}]}]
{"personIdQ1":2199023256097,"firstName":"Karl","limit":20}|[{"friendId":10995116278291,"friendLastName":"Muller","distanceFromPerson":1,"friendBirthday":499824000000,"friendCreationDate":1289131355341,"friendGender":"female","friendBrowserUsed":"Chrome","friendLocationIp":"46.16.217.105","friendEmails":["Karl10995116278291@zoho.com","Karl10995116278291@hotmail.com","Karl10995116278291@gmail.com"],"friendLanguages":["en","de"],"friendCityName":"Wedel","friendUniversities":[{"organizationName":"Fulda_University_of_Applied_Sciences","year":2003,"placeName":"Fulda"}],"friendCompanies":[{"organizationName":"Aero_Dienst","year":2005,"placeName":"Germany"}]},{"friendId":6597069766733,"friendLastName":"Fischer","distanceFromPerson":2,"friendBirthday":518832000000,"friendCreationDate":1280680644032,"friendGender":"female","friendBrowserUsed":"Chrome","friendLocationIp":"204.79.148.85","friendEmails":["Karl6597069766733@yahoo.com","Karl6597069766733@hotmail.com","Karl6597069766733@gmx.com","Karl6597069766733@gmail.com"],"friendLanguages":["en","de"],"friendCityName":"Ludwigsburg","friendUniversities":[{"organizationName":"University_of_Stuttgart","year":2005,"placeName":"Stuttgart"}],"friendCompanies":[{"organizationName":"Sylt_Air","year":2006,"placeName":"Germany"}]},{"friendId":17592186045382,"friendLastName":"Kurková","distanceFromPerson":2,"friendBirthday":584841600000,"friendCreationDate":1306035605938,"friendGender":"male","friendBrowserUsed":"Chrome","friendLocationIp":"31.129.37.0","friendEmails":["Karl17592186045382@yahoo.com"],"friendLanguages":["cs","en","sk"],"friendCityName":"Brno","friendUniversities":[{"organizationName":"University_of_Defence","year":2009,"placeName":"Brno"}],"friendCompanies":[{"organizationName":"Air_Wales","year":2010,"placeName":"Wales"},{"organizationName":"Euro_Cargo_Air","year":2009,"placeName":"Czech_Republic"}]},{"friendId":21990232556429,"friendLastName":"Frank","distanceFromPerson":3,"friendBirthday":524620800000,"friendCreationDate":1316423603694,"friendGender":"female","friendBrowserUsed":"Chrome","friendLocationIp":"31.220.4.255","friendEmails":["Karl21990232556429@yahoo.com","Karl21990232556429@dr.com"],"friendLanguages":["en","de"],"friendCityName":"Darmstadt","friendUniversities":[{"organizationName":"Reutlingen_University","year":2006,"placeName":"Reutlingen"}],"friendCompanies":[]}]
{"personIdQ1":26388279066931,"firstName":"Eugene","limit":20}|[{"friendId":26388279067560,"friendLastName":"Ravalomanana","distanceFromPerson":2,"friendBirthday":337219200000,"friendCreationDate":1328287013081,"friendGender":"female","friendBrowserUsed":"Internet Explorer","friendLocationIp":"196.43.214.8","friendEmails":["Eugene26388279067560@zoho.com","Eugene26388279067560@gmx.com","Eugene26388279067560@gmail.com"],"friendLanguages":["en","fr","mg"],"friendCityName":"Fianarantosa","friendUniversities":[{"organizationName":"Madagascar_Institute_of_Political_Studies","year":1998,"placeName":"Antananarivo"}],"friendCompanies":[{"organizationName":"Air_Madagascar","year":2000,"placeName":"Madagascar"},{"organizationName":"SprintAir","year":1999,"placeName":"Poland"}]},{"friendId":32985348833796,"friendLastName":"Roindefo","distanceFromPerson":2,"friendBirthday":383875200000,"friendCreationDate":1344906639880,"friendGender":"female","friendBrowserUsed":"Chrome","friendLocationIp":"41.207.39.119","friendEmails":["Eugene32985348833796@gmail.com"],"friendLanguages":["en","mg"],"friendCityName":"Toamasina","friendUniversities":[{"organizationName":"Madagascar_Institute_of_Political_Studies","year":2004,"placeName":"Antananarivo"}],"friendCompanies":[{"organizationName":"Air_Madagascar","year":2005,"placeName":"Madagascar"}]}]
{"personIdQ1":10995116277882,"firstName":"John","limit":20}|[{"friendId":6597069767571,"friendLastName":"Ahmad","distanceFromPerson":2,"friendBirthday":387072000000,"friendCreationDate":1282097584833,"friendGender":"female","friendBrowserUsed":"Internet Explorer","friendLocationIp":"202.142.154.222","friendEmails":["John6597069767571@gmx.com","John6597069767571@gmail.com"],"friendLanguages":["en"],"friendCityName":"Mirpur","friendUniversities":[{"organizationName":"Rawalpindi_Medical_College","year":2001,"placeName":"Rawalpindi"}],"friendCompanies":[]},{"friendId":2199023256427,"friendLastName":"Chatterjee","distanceFromPerson":2,"friendBirthday":483580800000,"friendCreationDate":1271510972645,"friendGender":"male","friendBrowserUsed":"Internet Explorer","friendLocationIp":"14.1.98.253","friendEmails":["John2199023256427@hotmail.com","John2199023256427@gmail.com","John2199023256427@agadir.cc"],"friendLanguages":["en","kn","te"],"friendCityName":"Manipal","friendUniversities":[{"organizationName":"CMR_Law_School","year":2003,"placeName":"Bangalore"}],"friendCompanies":[{"organizationName":"TajAir","year":2003,"placeName":"India"}]},{"friendId":4398046511667,"friendLastName":"Chopra","distanceFromPerson":2,"friendBirthday":408844800000,"friendCreationDate":1273184468738,"friendGender":"male","friendBrowserUsed":"Firefox","friendLocationIp":"61.246.227.11","friendEmails":["John4398046511667@yahoo.com","John4398046511667@gmail.com"],"friendLanguages":["en","hi","as"],"friendCityName":"Goa","friendUniversities":[{"organizationName":"New_Horizon_College_of_Engineering","year":2003,"placeName":"Bangalore"}],"friendCompanies":[{"organizationName":"TajAir","year":2004,"placeName":"India"},{"organizationName":"Jet_Konnect","year":2004,"placeName":"India"},{"organizationName":"JetLite","year":2004,"placeName":"India"},{"organizationName":"IndiGo","year":2004,"placeName":"India"}]},{"friendId":17592186045594,"friendLastName":"Irani","distanceFromPerson":2,"friendBirthday":483321600000,"friendCreationDate":1310006698949,"friendGender":"male","friendBrowserUsed":"Chrome","friendLocationIp":"49.156.135.191","friendEmails":["John17592186045594@gmail.com"],"friendLanguages":["en","as","ta"],"friendCityName":"Tirupati","friendUniversities":[{"organizationName":"The_Oxford_Educational_Institutions","year":2004,"placeName":"Bangalore"}],"friendCompanies":[]},{"friendId":17592186044532,"friendLastName":"Khan","distanceFromPerson":2,"friendBirthday":434937600000,"friendCreationDate":1307796167976,"friendGender":"male","friendBrowserUsed":"Safari","friendLocationIp":"59.165.223.95","friendEmails":["John17592186044532@yahoo.com","John17592186044532@gmail.com"],"friendLanguages":["en","as","ta"],"friendCityName":"Ajmer","friendUniversities":[{"organizationName":"The_Oxford_Educational_Institutions","year":2004,"placeName":"Bangalore"}],"friendCompanies":[]},{"friendId":19791209299968,"friendLastName":"Khan","distanceFromPerson":2,"friendBirthday":480729600000,"friendCreationDate":1311716494142,"friendGender":"male","friendBrowserUsed":"Internet Explorer","friendLocationIp":"27.4.90.237","friendEmails":["John19791209299968@gmail.com"],"friendLanguages":["en","ur","te"],"friendCityName":"Guntur","friendUniversities":[{"organizationName":"Indian_Institute_of_Science","year":2005,"placeName":"Bangalore"}],"friendCompanies":[{"organizationName":"MDLR_Airlines","year":2007,"placeName":"India"},{"organizationName":"Kalinga_Airlines","year":2005,"placeName":"India"}]},{"friendId":4398046511145,"friendLastName":"Kumar","distanceFromPerson":2,"friendBirthday":527731200000,"friendCreationDate":1274231654976,"friendGender":"male","friendBrowserUsed":"Safari","friendLocationIp":"27.116.33.147","friendEmails":["John4398046511145@zoho.com","John4398046511145@jizan.cc","John4398046511145@yahoo.com","John4398046511145@gmail.com"],"friendLanguages":["en","mr","gu"],"friendCityName":"Puttur","friendUniversities":[{"organizationName":"The_Oxford_Educational_Institutions","year":2004,"placeName":"Bangalore"}],"friendCompanies":[{"organizationName":"Jet_Airways","year":2005,"placeName":"India"},{"organizationName":"Deccan_360","year":2006,"placeName":"India"},{"organizationName":"Jagson_Airlines","year":2005,"placeName":"India"}]},{"friendId":13194139534270,"friendLastName":"Kumar","distanceFromPerson":2,"friendBirthday":403401600000,"friendCreationDate":1296137716296,"friendGender":"male","friendBrowserUsed":"Firefox","friendLocationIp":"61.11.77.50","friendEmails":["John13194139534270@gmail.com"],"friendLanguages":["en","gu","as"],"friendCityName":"Vijayawada","friendUniversities":[{"organizationName":"Sir_M._Visvesvaraya_Institute_of_Technology","year":2000,"placeName":"Bangalore"}],"friendCompanies":[{"organizationName":"Pawan_Hans","year":2001,"placeName":"India"},{"organizationName":"JetLite","year":2002,"placeName":"India"},{"organizationName":"Kingfisher_Red","year":2002,"placeName":"India"},{"organizationName":"Air_India","year":2002,"placeName":"India"}]},{"friendId":2199023255940,"friendLastName":"Rao","distanceFromPerson":2,"friendBirthday":498182400000,"friendCreationDate":1271240399510,"friendGender":"male","friendBrowserUsed":"Internet Explorer","friendLocationIp":"27.100.15.152","friendEmails":["John2199023255940@gmail.com"],"friendLanguages":["en","ur","bn"],"friendCityName":"Vijayawada","friendUniversities":[{"organizationName":"Rajiv_Gandhi_University_of_Health_Sciences","year":2004,"placeName":"Bangalore"}],"friendCompanies":[{"organizationName":"TajAir","year":2006,"placeName":"India"},{"organizationName":"Kalinga_Airlines","year":2005,"placeName":"India"},{"organizationName":"Blue_Dart_Aviation","year":2006,"placeName":"India"},{"organizationName":"Pawan_Hans","year":2006,"placeName":"India"},{"organizationName":"Deccan_360","year":2006,"placeName":"India"}]},{"friendId":2199023256181,"friendLastName":"Rao","distanceFromPerson":2,"friendBirthday":467942400000,"friendCreationDate":1271181379761,"friendGender":"male","friendBrowserUsed":"Chrome","friendLocationIp":"14.102.234.94","friendEmails":["John2199023256181@yahoo.com","John2199023256181@gmail.com","John2199023256181@abha.cc"],"friendLanguages":["en","gu","ta"],"friendCityName":"Thirthahalli","friendUniversities":[],"friendCompanies":[{"organizationName":"Deccan_360","year":2008,"placeName":"India"},{"organizationName":"Transmile_Air_Services","year":2012,"placeName":"Malaysia"}]},{"friendId":19791209300004,"friendLastName":"Reddy","distanceFromPerson":2,"friendBirthday":528249600000,"friendCreationDate":1313907075212,"friendGender":"male","friendBrowserUsed":"Chrome","friendLocationIp":"61.16.136.118","friendEmails":["John19791209300004@gmail.com"],"friendLanguages":["en","bn","ml"],"friendCityName":"Barasat","friendUniversities":[{"organizationName":"National_Institute_of_Business_Management","year":2005,"placeName":"Bangalore"}],"friendCompanies":[{"organizationName":"Air_India_Cargo","year":2006,"placeName":"India"}]},{"friendId":28587302323283,"friendLastName":"Sharma","distanceFromPerson":2,"friendBirthday":338688000000,"friendCreationDate":1334138782622,"friendGender":"male","friendBrowserUsed":"Internet Explorer","friendLocationIp":"27.54.175.160","friendEmails":["John28587302323283@yahoo.com","John28587302323283@gmail.com"],"friendLanguages":["en","kn","hi"],"friendCityName":"Bilaspur","friendUniversities":[{"organizationName":"The_Oxford_Educational_Institutions","year":1999,"placeName":"Bangalore"}],"friendCompanies":[{"organizationName":"Jet_Konnect","year":2001,"placeName":"India"},{"organizationName":"Jagson_Airlines","year":2000,"placeName":"India"},{"organizationName":"Kingfisher_Red","year":1999,"placeName":"India"}]},{"friendId":26388279067635,"friendLastName":"Sheikh","distanceFromPerson":2,"friendBirthday":335836800000,"friendCreationDate":1329282319837,"friendGender":"female","friendBrowserUsed":"Chrome","friendLocationIp":"175.111.190.30","friendEmails":["John26388279067635@yahoo.com"],"friendLanguages":["en","ur"],"friendCityName":"Faisalabad","friendUniversities":[],"friendCompanies":[{"organizationName":"Air_Indus","year":2012,"placeName":"Pakistan"},{"organizationName":"Vision_Air_International","year":2010,"placeName":"Pakistan"},{"organizationName":"Safe_Air","year":2002,"placeName":"Pakistan"},{"organizationName":"Airblue","year":2000,"placeName":"Pakistan"}]},{"friendId":2199023256456,"friendLastName":"Singh","distanceFromPerson":2,"friendBirthday":561945600000,"friendCreationDate":1272745300648,"friendGender":"male","friendBrowserUsed":"Chrome","friendLocationIp":"14.1.110.36","friendEmails":["John2199023256456@gmx.com"],"friendLanguages":["en","hi","ml"],"friendCityName":"Jalpaiguri","friendUniversities":[{"organizationName":"Banipur_Mahila_Mahavidyalaya","year":2009,"placeName":"Habra"}],"friendCompanies":[{"organizationName":"Deccan_Aviation","year":2010,"placeName":"India"},{"organizationName":"Jet_Konnect","year":2010,"placeName":"India"},{"organizationName":"Deccan_360","year":2010,"placeName":"India"},{"organizationName":"IndiGo","year":2010,"placeName":"India"}]},{"friendId":30786325578088,"friendLastName":"Singh","distanceFromPerson":2,"friendBirthday":351475200000,"friendCreationDate":1337624225668,"friendGender":"male","friendBrowserUsed":"Internet Explorer","friendLocationIp":"61.1.115.199","friendEmails":["John30786325578088@gmx.com"],"friendLanguages":["en","ur","kn"],"friendCityName":"Poonamallee","friendUniversities":[{"organizationName":"University_Visvesvaraya_College_of_Engineering","year":2003,"placeName":"Bangalore"}],"friendCompanies":[{"organizationName":"Deccan_Aviation","year":2004,"placeName":"India"},{"organizationName":"JetLite","year":2004,"placeName":"India"},{"organizationName":"Pawan_Hans","year":2003,"placeName":"India"},{"organizationName":"Air_India_Express","year":2003,"placeName":"India"}]},{"friendId":1490,"friendLastName":"Wilson","distanceFromPerson":2,"friendBirthday":457488000000,"friendCreationDate":1264063314340,"friendGender":"male","friendBrowserUsed":"Firefox","friendLocationIp":"21.111.144.187","friendEmails":["John1490@gmail.com"],"friendLanguages":["en"],"friendCityName":"Portland","friendUniversities":[{"organizationName":"Texas_A&M_University–San_Antonio","year":2005,"placeName":"San_Antonio"}],"friendCompanies":[{"organizationName":"Freight_Runners_Express","year":2007,"placeName":"United_States"}]},{"friendId":26388279067039,"friendLastName":"Aquino","distanceFromPerson":3,"friendBirthday":575164800000,"friendCreationDate":1327941643349,"friendGender":"male","friendBrowserUsed":"Firefox","friendLocationIp":"61.9.58.51","friendEmails":["John26388279067039@yahoo.com","John26388279067039@gmx.com","John26388279067039@gmail.com"],"friendLanguages":["en"],"friendCityName":"Taguig","friendUniversities":[{"organizationName":"University_of_San_Jose–Recoletos","year":2007,"placeName":"Cebu_City"}],"friendCompanies":[]},{"friendId":26388279067054,"friendLastName":"Brown","distanceFromPerson":3,"friendBirthday":590976000000,"friendCreationDate":1326949248911,"friendGender":"male","friendBrowserUsed":"Safari","friendLocationIp":"24.39.59.109","friendEmails":["John26388279067054@yahoo.com","John26388279067054@gmail.com"],"friendLanguages":["en","es"],"friendCityName":"Atlanta","friendUniversities":[{"organizationName":"Our_Lady_of_the_Lake_University","year":2010,"placeName":"San_Antonio"}],"friendCompanies":[{"organizationName":"Astar_Air_Cargo","year":2011,"placeName":"United_States"},{"organizationName":"USA_Jet_Airlines","year":2010,"placeName":"United_States"},{"organizationName":"Trans-Florida_Airlines","year":2010,"placeName":"United_States"},{"organizationName":"Air_Sénégal_International","year":2011,"placeName":"Senegal"},{"organizationName":"Kalitta_Charters","year":2010,"placeName":"United_States"}]},{"friendId":26388279067159,"friendLastName":"Brown","distanceFromPerson":3,"friendBirthday":445651200000,"friendCreationDate":1327459718587,"friendGender":"male","friendBrowserUsed":"Internet Explorer","friendLocationIp":"31.210.134.226","friendEmails":["John26388279067159@muscat.tv","John26388279067159@zoho.com","John26388279067159@gmx.com","John26388279067159@gmail.com"],"friendLanguages":["en"],"friendCityName":"Southampton","friendUniversities":[{"organizationName":"St_Mary's_College,_Oscott","year":2004,"placeName":"Birmingham"}],"friendCompanies":[{"organizationName":"Caledonian_Airways","year":2005,"placeName":"England"},{"organizationName":"UK_International_Airlines","year":2005,"placeName":"England"},{"organizationName":"Zoom_Airlines_Limited","year":2005,"placeName":"England"}]},{"friendId":21990232555834,"friendLastName":"Garcia","distanceFromPerson":3,"friendBirthday":410745600000,"friendCreationDate":1319638431023,"friendGender":"male","friendBrowserUsed":"Firefox","friendLocationIp":"121.127.18.252","friendEmails":["John21990232555834@gmx.com","John21990232555834@gmail.com"],"friendLanguages":["tl","en"],"friendCityName":"Quezon_City","friendUniversities":[{"organizationName":"University_of_San_Jose–Recoletos","year":2001,"placeName":"Cebu_City"}],"friendCompanies":[{"organizationName":"TransGlobal_Airways","year":2002,"placeName":"Philippines"}]}]
{"personIdQ1":6597069767668,"firstName":"Mihai","limit":20}|[{"friendId":17592186045238,"friendLastName":"David","distanceFromPerson":2,"friendBirthday":521164800000,"friendCreationDate":1304755261409,"friendGender":"male","friendBrowserUsed":"Firefox","friendLocationIp":"31.133.29.134","friendEmails":["Mihai17592186045238@gmail.com"],"friendLanguages":["en","hu","ro"],"friendCityName":"Oradea","friendUniversities":[{"organizationName":"National_Academy_of_Physical_Education_and_Sport","year":2006,"placeName":"Bucharest"}],"friendCompanies":[{"organizationName":"Eurojet_Romania","year":2007,"placeName":"Romania"},{"organizationName":"Medallion_Air","year":2007,"placeName":"Romania"},{"organizationName":"Direct_Aero_Services","year":2008,"placeName":"Romania"},{"organizationName":"Romavia","year":2007,"placeName":"Romania"}]},{"friendId":19791209301168,"friendLastName":"Popescu","distanceFromPerson":2,"friendBirthday":584582400000,"friendCreationDate":1314657196454,"friendGender":"male","friendBrowserUsed":"Chrome","friendLocationIp":"31.220.130.214","friendEmails":["Mihai19791209301168@yahoo.com","Mihai19791209301168@tattoodesign.com","Mihai19791209301168@gmx.com"],"friendLanguages":["en","ro"],"friendCityName":"Iași","friendUniversities":[{"organizationName":"University_of_Galaţi","year":2007,"placeName":"Galați"}],"friendCompanies":[{"organizationName":"Eurojet_Romania","year":2008,"placeName":"Romania"},{"organizationName":"Medallion_Air","year":2007,"placeName":"Romania"},{"organizationName":"Direct_Aero_Services","year":2009,"placeName":"Romania"},{"organizationName":"Air_Bucharest","year":2008,"placeName":"Romania"}]}]
{"personIdQ1":8796093023655,"firstName":"Mike","limit":20}|[{"friendId":15393162789346,"friendLastName":"Jones","distanceFromPerson":2,"friendBirthday":468028800000,"friendCreationDate":1299757249138,"friendGender":"female","friendBrowserUsed":"Firefox","friendLocationIp":"24.72.152.125","friendEmails":["Mike15393162789346@yahoo.com","Mike15393162789346@gmx.com","Mike15393162789346@gmail.com"],"friendLanguages":["en","es"],"friendCityName":"Fayetteville","friendUniversities":[{"organizationName":"Virginia_College","year":2005,"placeName":"Birmingham"}],"friendCompanies":[{"organizationName":"Alsek_Air_Service","year":2006,"placeName":"United_States"},{"organizationName":"Lynx_Air_International","year":2007,"placeName":"United_States"}]},{"friendId":4398046511322,"friendLastName":"Wilson","distanceFromPerson":3,"friendBirthday":456796800000,"friendCreationDate":1275103885690,"friendGender":"female","friendBrowserUsed":"Internet Explorer","friendLocationIp":"24.53.139.223","friendEmails":["Mike4398046511322@yahoo.com","Mike4398046511322@hotmail.com","Mike4398046511322@gmx.com","Mike4398046511322@gmail.com"],"friendLanguages":["es","en"],"friendCityName":"Indianapolis","friendUniversities":[{"organizationName":"Florida_State_University_College_of_Medicine","year":2006,"placeName":"Tallahassee"}],"friendCompanies":[{"organizationName":"Express.Net_Airlines","year":2007,"placeName":"United_States"},{"organizationName":"Florida_West_International_Airways","year":2006,"placeName":"United_States"},{"organizationName":"West_Air","year":2007,"placeName":"United_States"}]}]
{"personIdQ1":15393162789696,"firstName":"Mike","limit":20}|[{"friendId":15393162789346,"friendLastName":"Jones","distanceFromPerson":2,"friendBirthday":468028800000,"friendCreationDate":1299757249138,"friendGender":"female","friendBrowserUsed":"Firefox","friendLocationIp":"24.72.152.125","friendEmails":["Mike15393162789346@yahoo.com","Mike15393162789346@gmx.com","Mike15393162789346@gmail.com"],"friendLanguages":["en","es"],"friendCityName":"Fayetteville","friendUniversities":[{"organizationName":"Virginia_College","year":2005,"placeName":"Birmingham"}],"friendCompanies":[{"organizationName":"Alsek_Air_Service","year":2006,"placeName":"United_States"},{"organizationName":"Lynx_Air_International","year":2007,"placeName":"United_States"}]},{"friendId":4398046511322,"friendLastName":"Wilson","distanceFromPerson":2,"friendBirthday":456796800000,"friendCreationDate":1275103885690,"friendGender":"female","friendBrowserUsed":"Internet Explorer","friendLocationIp":"24.53.139.223","friendEmails":["Mike4398046511322@yahoo.com","Mike4398046511322@hotmail.com","Mike4398046511322@gmx.com","Mike4398046511322@gmail.com"],"friendLanguages":["es","en"],"friendCityName":"Indianapolis","friendUniversities":[{"organizationName":"Florida_State_University_College_of_Medicine","year":2006,"placeName":"Tallahassee"}],"friendCompanies":[{"organizationName":"Florida_West_International_Airways","year":2006,"placeName":"United_States"},{"organizationName":"Express.Net_Airlines","year":2007,"placeName":"United_States"},{"organizationName":"West_Air","year":2007,"placeName":"United_States"}]}]
{"personIdQ1":454,"firstName":"Karl","limit":20}|[{"friendId":6597069766733,"friendLastName":"Fischer","distanceFromPerson":2,"friendBirthday":518832000000,"friendCreationDate":1280680644032,"friendGender":"female","friendBrowserUsed":"Chrome","friendLocationIp":"204.79.148.85","friendEmails":["Karl6597069766733@yahoo.com","Karl6597069766733@hotmail.com","Karl6597069766733@gmx.com","Karl6597069766733@gmail.com"],"friendLanguages":["en","de"],"friendCityName":"Ludwigsburg","friendUniversities":[{"organizationName":"University_of_Stuttgart","year":2005,"placeName":"Stuttgart"}],"friendCompanies":[{"organizationName":"Sylt_Air","year":2006,"placeName":"Germany"}]},{"friendId":10995116278291,"friendLastName":"Muller","distanceFromPerson":2,"friendBirthday":499824000000,"friendCreationDate":1289131355341,"friendGender":"female","friendBrowserUsed":"Chrome","friendLocationIp":"46.16.217.105","friendEmails":["Karl10995116278291@zoho.com","Karl10995116278291@hotmail.com","Karl10995116278291@gmail.com"],"friendLanguages":["en","de"],"friendCityName":"Wedel","friendUniversities":[{"organizationName":"Fulda_University_of_Applied_Sciences","year":2003,"placeName":"Fulda"}],"friendCompanies":[{"organizationName":"Aero_Dienst","year":2005,"placeName":"Germany"}]},{"friendId":21990232556429,"friendLastName":"Frank","distanceFromPerson":3,"friendBirthday":524620800000,"friendCreationDate":1316423603694,"friendGender":"female","friendBrowserUsed":"Chrome","friendLocationIp":"31.220.4.255","friendEmails":["Karl21990232556429@yahoo.com","Karl21990232556429@dr.com"],"friendLanguages":["en","de"],"friendCityName":"Darmstadt","friendUniversities":[{"organizationName":"Reutlingen_University","year":2006,"placeName":"Reutlingen"}],"friendCompanies":[]},{"friendId":17592186045382,"friendLastName":"Kurková","distanceFromPerson":3,"friendBirthday":584841600000,"friendCreationDate":1306035605938,"friendGender":"male","friendBrowserUsed":"Chrome","friendLocationIp":"31.129.37.0","friendEmails":["Karl17592186045382@yahoo.com"],"friendLanguages":["cs","en","sk"],"friendCityName":"Brno","friendUniversities":[{"organizationName":"University_of_Defence","year":2009,"placeName":"Brno"}],"friendCompanies":[{"organizationName":"Air_Wales","year":2010,"placeName":"Wales"},{"organizationName":"Euro_Cargo_Air","year":2009,"placeName":"Czech_Republic"}]},{"friendId":6597069766964,"friendLastName":"Muller","distanceFromPerson":3,"friendBirthday":328406400000,"friendCreationDate":1281896839684,"friendGender":"female","friendBrowserUsed":"Internet Explorer","friendLocationIp":"53.25.144.238","friendEmails":["Karl6597069766964@gmail.com","Karl6597069766964@blida.info"],"friendLanguages":["en","de"],"friendCityName":"Ludwigsburg","friendUniversities":[{"organizationName":"ESB_Business_School","year":2001,"placeName":"Reutlingen"}],"friendCompanies":[]}]
{"personIdQ1":30786325579101,"firstName":"Ian","limit":20}|[{"friendId":10995116279328,"friendLastName":"Smith","distanceFromPerson":2,"friendBirthday":513388800000,"friendCreationDate":1291220622426,"friendGender":"male","friendBrowserUsed":"Internet Explorer","friendLocationIp":"199.103.115.201","friendEmails":["Ian10995116279328@gmx.com","Ian10995116279328@gmail.com"],"friendLanguages":["en"],"friendCityName":"Bristol","friendUniversities":[{"organizationName":"Faculty_of_Health","year":2005,"placeName":"Birmingham"}],"friendCompanies":[{"organizationName":"Flybe","year":2007,"placeName":"United_Kingdom"},{"organizationName":"Airtours_International_Airways","year":2006,"placeName":"United_Kingdom"},{"organizationName":"British_Mediterranean_Airways","year":2007,"placeName":"United_Kingdom"}]}]
